*******************************************************************************
Ephemeris / WWW_USER Mon Mar 24 11:33:54 2025 Pasadena, USA      / Horizons    
*******************************************************************************
Target body name: 468861 (2013 LU28)              {source: JPL#36}
Center body name: Earth (399)                     {source: DE441}
Center-site name: Mauna Kea
*******************************************************************************
Start time      : A.D. 2018-Aug-28 04:50:00.0000 UT      
Stop  time      : A.D. 2018-Aug-28 15:56:00.0000 UT      
Step-size       : 1 minutes
*******************************************************************************
Target pole/equ : undefined
Target radii    : undefined                                                    
Center geodetic : 204.5278, 19.8260847, 4.21024   {E-lon(deg),Lat(deg),Alt(km)}
Center cylindric: 204.5278, 6006.35451, 2151.0229 {E-lon(deg),Dxy(km),Dz(km)}
Center pole/equ : ITRF93                          {East-longitude positive}
Center radii    : 6378.137, 6378.137, 6356.752 km {Equator_a, b, pole_c}       
Target primary  : Sun
Vis. interferer : MOON (R_eq= 1737.400) km        {source: DE441}
Rel. light bend : Sun                             {source: DE441}
Rel. lght bnd GM: 1.3271E+11 km^3/s^2                                          
Small-body perts: Yes                             {source: SB441-N16}
Atmos refraction: NO (AIRLESS)
RA format       : HMS
Time format     : CAL 
Calendar mode   : Mixed Julian/Gregorian
RTS-only print  : NO       
EOP file        : eop.250321.p250617                                           
EOP coverage    : DATA-BASED 1962-JAN-20 TO 2025-MAR-21. PREDICTS-> 2025-JUN-16
Units conversion: 1 au= 149597870.700 km, c= 299792.458 km/s, 1 day= 86400.0 s 
Table cut-offs 1: Elevation (-90.0deg=NO ),Airmass (>38.000=NO), Daylight (YES)
Table cut-offs 2: Solar elongation (  0.0,180.0=NO ),Local Hour Angle( 0.0=NO )
Table cut-offs 3: RA/DEC angular rate (     0.0=NO )                           
*******************************************************************************
Initial IAU76/J2000 heliocentric ecliptic osculating elements (au, days, deg.):
  EPOCH=  2459491.5 ! 2021-Oct-04.00 (TDB)         Residual RMS= .14077        
   EC= .9545524767334098   QR= 8.741840911970645   TP= 2460480.7801673855      
   OM= 275.9923561772391   W=  152.9171912923278   IN= 125.3473013584344       
  Equivalent ICRF heliocentric cartesian coordinates (au, au/d):
   X=-6.020062670108302E+00  Y=-1.182282064265113E+00  Z= 8.330249486138040E+00
  VX= 2.086988006100027E-03 VY= 7.079392581348984E-03 VZ=-1.092497303529149E-03
Asteroid physical parameters (km, seconds, rotational period in hours):        
   GM= n.a.                RAD= n.a.               ROTPER= n.a.                
   H= 8.24                 G= .150                 B-V= n.a.                   
                           ALBEDO= n.a.            STYP= n.a.                  
*******************************************************************************
 Date__(UT)__HR:MN     R.A._________(ICRF)_________DEC
******************************************************
$$SOE
 2018-Aug-28 10:59  m  14 58 39.711997 +36 01 49.59844
 2018-Aug-28 11:00  m  14 58 39.713147 +36 01 49.49539
 2018-Aug-28 11:01  m  14 58 39.714297 +36 01 49.39233
 2018-Aug-28 11:02  m  14 58 39.715449 +36 01 49.28928
 2018-Aug-28 11:03  m  14 58 39.716601 +36 01 49.18623
 2018-Aug-28 11:04  m  14 58 39.717754 +36 01 49.08318
 2018-Aug-28 11:05  m  14 58 39.718908 +36 01 48.98014
 2018-Aug-28 11:06  m  14 58 39.720063 +36 01 48.87710
 2018-Aug-28 11:07  m  14 58 39.721218 +36 01 48.77407
 2018-Aug-28 11:08  m  14 58 39.722375 +36 01 48.67104
 2018-Aug-28 11:09  m  14 58 39.723532 +36 01 48.56801
 2018-Aug-28 11:10  m  14 58 39.724691 +36 01 48.46499
 2018-Aug-28 11:11  m  14 58 39.725850 +36 01 48.36197
 2018-Aug-28 11:12  m  14 58 39.727010 +36 01 48.25895
 2018-Aug-28 11:13  m  14 58 39.728171 +36 01 48.15594
 2018-Aug-28 11:14  m  14 58 39.729333 +36 01 48.05293
 2018-Aug-28 11:15  m  14 58 39.730496 +36 01 47.94993
 2018-Aug-28 11:16  m  14 58 39.731660 +36 01 47.84693
 2018-Aug-28 11:17  m  14 58 39.732824 +36 01 47.74393
 2018-Aug-28 11:18  m  14 58 39.733990 +36 01 47.64094
 2018-Aug-28 11:19  m  14 58 39.735156 +36 01 47.53795
 2018-Aug-28 11:20  m  14 58 39.736323 +36 01 47.43496
 2018-Aug-28 11:21  m  14 58 39.737491 +36 01 47.33198
 2018-Aug-28 11:22  m  14 58 39.738660 +36 01 47.22900
 2018-Aug-28 11:23  m  14 58 39.739830 +36 01 47.12603
 2018-Aug-28 11:24  m  14 58 39.741000 +36 01 47.02306
 2018-Aug-28 11:25  m  14 58 39.742172 +36 01 46.92010
 2018-Aug-28 11:26  m  14 58 39.743344 +36 01 46.81713
 2018-Aug-28 11:27  m  14 58 39.744517 +36 01 46.71418
 2018-Aug-28 11:28  m  14 58 39.745691 +36 01 46.61122
 2018-Aug-28 11:29  m  14 58 39.746866 +36 01 46.50827
 2018-Aug-28 11:30  m  14 58 39.748041 +36 01 46.40533
 2018-Aug-28 11:31  m  14 58 39.749218 +36 01 46.30239
 2018-Aug-28 11:32  m  14 58 39.750395 +36 01 46.19945
 2018-Aug-28 11:33  m  14 58 39.751573 +36 01 46.09652
 2018-Aug-28 11:34  m  14 58 39.752752 +36 01 45.99359
 2018-Aug-28 11:35  m  14 58 39.753932 +36 01 45.89067
 2018-Aug-28 11:36  m  14 58 39.755113 +36 01 45.78775
 2018-Aug-28 11:37  m  14 58 39.756294 +36 01 45.68483
 2018-Aug-28 11:38  m  14 58 39.757476 +36 01 45.58192
 2018-Aug-28 11:39  m  14 58 39.758660 +36 01 45.47901
 2018-Aug-28 11:40  m  14 58 39.759843 +36 01 45.37611
 2018-Aug-28 11:41  m  14 58 39.761028 +36 01 45.27321
 2018-Aug-28 11:42  m  14 58 39.762214 +36 01 45.17032
 2018-Aug-28 11:43  m  14 58 39.763400 +36 01 45.06743
 2018-Aug-28 11:44  m  14 58 39.764587 +36 01 44.96454
 2018-Aug-28 11:45  m  14 58 39.765775 +36 01 44.86166
 2018-Aug-28 11:46  m  14 58 39.766964 +36 01 44.75879
 2018-Aug-28 11:47  m  14 58 39.768153 +36 01 44.65592
 2018-Aug-28 11:48  m  14 58 39.769344 +36 01 44.55305
 2018-Aug-28 11:49  m  14 58 39.770535 +36 01 44.45019
 2018-Aug-28 11:50  m  14 58 39.771727 +36 01 44.34733
 2018-Aug-28 11:51  m  14 58 39.772919 +36 01 44.24448
 2018-Aug-28 11:52  m  14 58 39.774113 +36 01 44.14163
 2018-Aug-28 11:53  m  14 58 39.775307 +36 01 44.03878
 2018-Aug-28 11:54  m  14 58 39.776502 +36 01 43.93594
 2018-Aug-28 11:55  m  14 58 39.777698 +36 01 43.83311
 2018-Aug-28 11:56  m  14 58 39.778895 +36 01 43.73028
 2018-Aug-28 11:57  m  14 58 39.780092 +36 01 43.62745
 2018-Aug-28 11:58  m  14 58 39.781290 +36 01 43.52463
 2018-Aug-28 11:59  m  14 58 39.782489 +36 01 43.42182
 2018-Aug-28 12:00  m  14 58 39.783689 +36 01 43.31900
 2018-Aug-28 12:01  m  14 58 39.784889 +36 01 43.21620
 2018-Aug-28 12:02  m  14 58 39.786090 +36 01 43.11340
 2018-Aug-28 12:03  m  14 58 39.787292 +36 01 43.01060
 2018-Aug-28 12:04  m  14 58 39.788495 +36 01 42.90781
 2018-Aug-28 12:05  m  14 58 39.789698 +36 01 42.80502
 2018-Aug-28 12:06  m  14 58 39.790902 +36 01 42.70224
 2018-Aug-28 12:07  m  14 58 39.792107 +36 01 42.59946
 2018-Aug-28 12:08  m  14 58 39.793313 +36 01 42.49669
 2018-Aug-28 12:09  m  14 58 39.794519 +36 01 42.39392
 2018-Aug-28 12:10  m  14 58 39.795726 +36 01 42.29116
 2018-Aug-28 12:11  m  14 58 39.796934 +36 01 42.18840
 2018-Aug-28 12:12  m  14 58 39.798143 +36 01 42.08565
 2018-Aug-28 12:13  m  14 58 39.799352 +36 01 41.98290
 2018-Aug-28 12:14  m  14 58 39.800562 +36 01 41.88015
 2018-Aug-28 12:15  m  14 58 39.801773 +36 01 41.77742
 2018-Aug-28 12:16  m  14 58 39.802984 +36 01 41.67468
 2018-Aug-28 12:17  m  14 58 39.804196 +36 01 41.57196
 2018-Aug-28 12:18  m  14 58 39.805409 +36 01 41.46923
 2018-Aug-28 12:19  m  14 58 39.806623 +36 01 41.36652
 2018-Aug-28 12:20  m  14 58 39.807837 +36 01 41.26380
 2018-Aug-28 12:21  m  14 58 39.809052 +36 01 41.16110
 2018-Aug-28 12:22  m  14 58 39.810268 +36 01 41.05839
 2018-Aug-28 12:23  m  14 58 39.811484 +36 01 40.95570
 2018-Aug-28 12:24  m  14 58 39.812701 +36 01 40.85300
 2018-Aug-28 12:25  m  14 58 39.813919 +36 01 40.75032
 2018-Aug-28 12:26  m  14 58 39.815137 +36 01 40.64764
 2018-Aug-28 12:27  m  14 58 39.816357 +36 01 40.54496
 2018-Aug-28 12:28  m  14 58 39.817576 +36 01 40.44229
 2018-Aug-28 12:29  m  14 58 39.818797 +36 01 40.33962
 2018-Aug-28 12:30  m  14 58 39.820018 +36 01 40.23696
 2018-Aug-28 12:31  m  14 58 39.821240 +36 01 40.13431
 2018-Aug-28 12:32  m  14 58 39.822462 +36 01 40.03166
 2018-Aug-28 12:33  m  14 58 39.823685 +36 01 39.92901
 2018-Aug-28 12:34  m  14 58 39.824909 +36 01 39.82637
 2018-Aug-28 12:35  m  14 58 39.826134 +36 01 39.72374
 2018-Aug-28 12:36  m  14 58 39.827359 +36 01 39.62111
 2018-Aug-28 12:37  m  14 58 39.828584 +36 01 39.51849
 2018-Aug-28 12:38  m  14 58 39.829811 +36 01 39.41587
 2018-Aug-28 12:39  m  14 58 39.831038 +36 01 39.31326
 2018-Aug-28 12:40  m  14 58 39.832266 +36 01 39.21065
 2018-Aug-28 12:41  m  14 58 39.833494 +36 01 39.10805
 2018-Aug-28 12:42  m  14 58 39.834723 +36 01 39.00545
 2018-Aug-28 12:43  m  14 58 39.835953 +36 01 38.90286
 2018-Aug-28 12:44  m  14 58 39.837183 +36 01 38.80028
 2018-Aug-28 12:45  m  14 58 39.838414 +36 01 38.69770
 2018-Aug-28 12:46  m  14 58 39.839645 +36 01 38.59513
 2018-Aug-28 12:47  m  14 58 39.840877 +36 01 38.49256
 2018-Aug-28 12:48  m  14 58 39.842110 +36 01 38.38999
 2018-Aug-28 12:49  m  14 58 39.843343 +36 01 38.28744
 2018-Aug-28 12:50  m  14 58 39.844577 +36 01 38.18489
 2018-Aug-28 12:51  m  14 58 39.845812 +36 01 38.08234
 2018-Aug-28 12:52  m  14 58 39.847047 +36 01 37.97980
 2018-Aug-28 12:53  m  14 58 39.848282 +36 01 37.87726
 2018-Aug-28 12:54  m  14 58 39.849519 +36 01 37.77474
 2018-Aug-28 12:55  m  14 58 39.850756 +36 01 37.67221
 2018-Aug-28 12:56  m  14 58 39.851993 +36 01 37.56969
 2018-Aug-28 12:57  m  14 58 39.853231 +36 01 37.46718
 2018-Aug-28 12:58  m  14 58 39.854470 +36 01 37.36468
 2018-Aug-28 12:59  m  14 58 39.855709 +36 01 37.26218
 2018-Aug-28 13:00  m  14 58 39.856949 +36 01 37.15968
 2018-Aug-28 13:01  m  14 58 39.858189 +36 01 37.05719
